OBJECT_NAME,OBJECT_ID,EPOCH,MEAN_MOTION,ECCENTRICITY,INCLINATION,RA_OF_ASC_NODE,ARG_OF_PERICENTER,MEAN_ANOMALY,EPHEMERIS_TYPE,CLASSIFICATION_TYPE,NORAD_CAT_ID,ELEMENT_SET_NO,REV_AT_EPOCH,BSTAR,MEAN_MOTION_DOT,MEAN_MOTION_DDOT
ONEWEB-0473,2022-012AH,2026-07-14T14:10:00.234336,13.10376494,.0001859,87.8817,30.8148,90.1264,270.0076,0,U,51653,999,21289,-.94978E-4,-.2E-6,0
ONEWEB-0474,2022-012AJ,2026-07-14T13:57:45.641664,13.10376741,.0001573,87.8823,30.8032,93.3274,266.8033,0,U,51654,999,21288,-.11109E-2,-.375E-5,0
ONEWEB-0475,2022-012AK,2026-07-14T20:42:52.433568,13.17648730,.00014226,87.9146,0.3667,111.0242,249.1041,0,U,51655,999,21733,.26437542E-4,.23E-6,0
ONEWEB-0490,2022-138A,2026-07-14T17:33:55.670976,13.19726436,.00020553,87.9192,299.4836,106.3537,253.7822,0,U,54113,999,18046,-.14007563E-3,-.43E-6,0
ONEWEB-0492,2022-138B,2026-07-14T19:59:28.576032,13.19725166,.00022275,87.9184,299.4629,104.3088,255.8292,0,U,54114,999,18048,-.55301044E-3,-.208E-5,0
ONEWEB-0495,2022-138C,2026-07-14T19:27:39.334752,13.19724230,.00022024,87.9186,299.4699,118.6906,241.4449,0,U,54115,999,18046,.90037689E-3,.373E-5,0
ONEWEB-0497,2022-138D,2026-07-14T19:45:49.440096,13.19735018,.00020482,87.9191,299.4610,106.6204,253.5154,0,U,54116,999,18045,-.5244796E-2,-.2087E-4,0
ONEWEB-0499,2022-138E,2026-07-14T19:21:57.737664,13.19724251,.00019582,87.9183,299.4719,108.5502,251.5844,0,U,54117,999,18046,.44235036E-4,.31E-6,0
ONEWEB-0500,2022-138F,2026-07-14T19:25:23.367072,13.19726035,.00020764,87.9192,299.4673,98.4349,261.7019,0,U,54118,999,18047,-.17420738E-3,-.57E-6,0
ONEWEB-0501,2022-138G,2026-07-14T20:08:36.674304,13.19725895,.00020856,87.9193,299.4615,113.0108,247.1245,0,U,54119,999,18045,-.86222785E-4,-.22E-6,0
ONEWEB-0502,2022-138H,2026-07-14T19:48:06.081696,13.19735638,.00019165,87.9190,299.4533,108.3679,251.7662,0,U,54120,999,18047,-.19973286E-2,-.787E-5,0
ONEWEB-0503,2022-138J,2026-07-14T19:32:12.182496,13.19726429,.00017399,87.9197,299.4618,97.9417,262.1913,0,U,54121,999,18046,-.11433053E-3,-.33E-6,0
ONEWEB-0504,2022-138K,2026-07-14T19:14:00.483936,13.19726472,.00018903,87.9192,299.4690,108.1446,251.9892,0,U,54122,999,18047,-.67430772E-4,-.14E-6,0
ONEWEB-0505,2022-138L,2026-07-14T19:09:25.941024,13.19725140,.00019352,87.9191,299.4702,114.8113,245.3222,0,U,54123,999,18045,-.59776716E-3,-.226E-5,0
ONEWEB-0506,2022-138M,2026-07-14T20:22:15.651264,13.19725405,.00020205,87.9196,299.4576,110.5685,249.5665,0,U,54124,999,18045,.18326435E-3,.86E-6,0
ONEWEB-0507,2022-138N,2026-07-14T19:02:37.840992,13.19726744,.00020671,87.9185,299.4780,106.5850,253.5510,0,U,54125,999,18049,-.11539216E-3,-.33E-6,0
ONEWEB-0508,2022-138P,2026-07-14T18:58:05.451168,13.19727772,.00022065,87.9183,299.4784,111.9578,248.1789,0,U,54126,999,18047,-.54415222E-3,-.205E-5,0
ONEWEB-0509,2022-138Q,2026-07-14T20:10:51.822048,13.19724003,.00020396,87.9196,299.4605,105.7105,254.4253,0,U,54127,999,18045,-.15692171E-3,-.5E-6,0
ONEWEB-0510,2022-138R,2026-07-14T16:58:46.278912,13.20769039,.0002015,87.9182,268.9533,88.2910,271.8454,0,U,54128,999,18291,.13812266E-3,.69E-6,0
ONEWEB-0511,2022-138S,2026-07-14T20:06:18.134496,13.19723618,.00017407,87.9191,299.4628,103.8980,256.2346,0,U,54129,999,18048,-.28291238E-4,.2E-7,0
ONEWEB-0512,2022-138T,2026-07-14T19:54:55.957248,13.19726574,.00018952,87.9184,299.4675,111.3962,248.7373,0,U,54130,999,18045,-.17322321E-3,-.56E-6,0
ONEWEB-0513,2022-138U,2026-07-14T19:46:39.189216,13.20269525,.00015599,87.9192,299.4096,127.5775,232.5500,0,U,54131,999,18036,-.1267375E-3,-.38E-6,0
ONEWEB-0514,2022-138V,2026-07-14T20:17:41.284608,13.19726305,.00019635,87.9193,299.4606,97.1389,262.9967,0,U,54132,999,18047,.60772253E-4,.37E-6,0
ONEWEB-0515,2022-138W,2026-07-14T18:28:29.428320,13.20771922,.00027941,87.9190,268.9355,87.3839,272.7615,0,U,54133,999,18294,.14310316E-3,.71E-6,0
ONEWEB-0516,2022-138X,2026-07-14T19:41:17.143584,13.19724028,.00021309,87.9185,299.4697,102.9323,257.2047,0,U,54134,999,18047,-.1699243E-3,-.55E-6,0
ONEWEB-0517,2022-138Y,2026-07-14T19:11:44.010816,13.19725772,.00017248,87.9193,299.4682,97.6402,262.4926,0,U,54135,999,18047,-.1562789E-3,-.5E-6,0
ONEWEB-0518,2022-138Z,2026-07-14T19:39:01.207872,13.19723934,.00022146,87.9185,299.4722,102.5012,257.6368,0,U,54136,999,18047,-.13984424E-3,-.43E-6,0
ONEWEB-0519,2022-138AA,2026-07-14T20:15:23.887008,13.19723531,.00018269,87.9192,299.4603,98.9935,261.1404,0,U,54137,999,18048,.75946887E-4,.43E-6,0
ONEWEB-0520,2022-138AB,2026-07-14T19:16:16.926816,13.19726218,.00020857,87.9194,299.4692,109.3664,250.7695,0,U,54138,999,18046,-.12497007E-3,-.37E-6,0
ONEWEB-0521,2022-138AC,2026-07-14T20:04:01.473888,13.19726935,.00018252,87.9197,299.4512,97.3692,262.7648,0,U,54139,999,18041,.6183214E-5,.15E-6,0
